[{"OBJECT_NAME":"TIANMU-1 22","OBJECT_ID":"2023-208D","EPOCH":"2026-03-09T22:39:05.738688","MEAN_MOTION":15.29457749,"ECCENTRICITY":0.00031332,"INCLINATION":97.4379,"RA_OF_ASC_NODE":184.9419,"ARG_OF_PERICENTER":351.9312,"MEAN_ANOMALY":8.1877,"EPHEMERIS_TYPE":0,"CLASSIFICATION_TYPE":"U","NORAD_CAT_ID":58663,"ELEMENT_SET_NO":999,"REV_AT_EPOCH":12215,"BSTAR":0.00038239675,"MEAN_MOTION_DOT":0.00010851,"MEAN_MOTION_DDOT":0},{"OBJECT_NAME":"STARLINK-34139","OBJECT_ID":"2025-099Z","EPOCH":"2026-03-09T06:56:46.021056","MEAN_MOTION":15.27602669,"ECCENTRICITY":0.00031313,"INCLINATION":43.0025,"RA_OF_ASC_NODE":175.138,"ARG_OF_PERICENTER":286.4319,"MEAN_ANOMALY":73.6189,"EPHEMERIS_TYPE":0,"CLASSIFICATION_TYPE":"U","NORAD_CAT_ID":63975,"ELEMENT_SET_NO":999,"REV_AT_EPOCH":4722,"BSTAR":0.0014155329,"MEAN_MOTION_DOT":0.00038926,"MEAN_MOTION_DDOT":0}]
